{
    "links": {
        "self": "http://www.neowsapp.com/rest/v1/neo/3825649?api_key=iIulBulltgU6a56xZRHN4H3l9WmuAYTsLGpBGhQ2"
    },
    "id": "3825649",
    "neo_reference_id": "3825649",
    "name": "(2018 NH4)",
    "designation": "2018 NH4",
    "nasa_jpl_url": "http://ssd.jpl.nasa.gov/sbdb.cgi?sstr=3825649",
    "absolute_magnitude_h": 24.7,
    "estimated_diameter": {
        "kilometers": {
            "estimated_diameter_min": 0.0305179233,
            "estimated_diameter_max": 0.0682401509
        },
        "meters": {
            "estimated_diameter_min": 30.5179232594,
            "estimated_diameter_max": 68.2401509401
        },
        "miles": {
            "estimated_diameter_min": 0.0189629525,
            "estimated_diameter_max": 0.0424024508
        },
        "feet": {
            "estimated_diameter_min": 100.1244233463,
            "estimated_diameter_max": 223.8850168104
        }
    },
    "is_potentially_hazardous_asteroid": false,
    "close_approach_data": [
        {
            "close_approach_date": "2018-07-13",
            "close_approach_date_full": "2018-Jul-13 22:54",
            "epoch_date_close_approach": 1531522440000,
            "relative_velocity": {
                "kilometers_per_second": "10.3085660014",
                "kilometers_per_hour": "37110.8376049165",
                "miles_per_hour": "23059.2312884549"
            },
            "miss_distance": {
                "astronomical": "0.0699089263",
                "lunar": "27.1945723307",
                "kilometers": "10458226.468466981",
                "miles": "6498440.5908110978"
            },
            "orbiting_body": "Earth"
        }
    ],
    "orbital_data": {
        "orbit_id": "3",
        "orbit_determination_date": "2018-08-07 07:00:33",
        "first_observation_date": "2018-07-13",
        "last_observation_date": "2018-08-06",
        "data_arc_in_days": 24,
        "observations_used": 22,
        "orbit_uncertainty": "8",
        "minimum_orbit_intersection": ".0421568",
        "jupiter_tisserand_invariant": "3.565",
        "epoch_osculation": "2458313.5",
        "eccentricity": ".5130393708370068",
        "semi_major_axis": "2.091550471298275",
        "inclination": "8.307204773744164",
        "ascending_node_longitude": "114.5721509681676",
        "orbital_period": "1104.843971693806",
        "perihelion_distance": "1.018502733429563",
        "perihelion_argument": "145.5085528114296",
        "aphelion_distance": "3.164598209166988",
        "perihelion_time": "2458288.807057358866",
        "mean_anomaly": "8.045895690755367",
        "mean_motion": ".3258378641900845",
        "equinox": "J2000",
        "orbit_class": {
            "orbit_class_type": "AMO",
            "orbit_class_description": "Near-Earth asteroid orbits similar to that of 1221 Amor",
            "orbit_class_range": "1.017 AU < q (perihelion) < 1.3 AU"
        }
    },
    "is_sentry_object": false
}